[{"OBJECT_NAME":"STARLINK-34375","OBJECT_ID":"2025-133F","EPOCH":"2026-03-09T10:59:38.524992","MEAN_MOTION":15.30206184,"ECCENTRICITY":0.0001126,"INCLINATION":53.16,"RA_OF_ASC_NODE":117.827,"ARG_OF_PERICENTER":80.7451,"MEAN_ANOMALY":279.3678,"EPHEMERIS_TYPE":0,"CLASSIFICATION_TYPE":"U","NORAD_CAT_ID":64477,"ELEMENT_SET_NO":999,"REV_AT_EPOCH":4115,"BSTAR":0.00073385779,"MEAN_MOTION_DOT":0.00021442,"MEAN_MOTION_DDOT":0},{"OBJECT_NAME":"TITAN 4B R\/B","OBJECT_ID":"2005-016B","EPOCH":"2026-03-09T20:27:57.848832","MEAN_MOTION":15.42682045,"ECCENTRICITY":0.00616552,"INCLINATION":56.9964,"RA_OF_ASC_NODE":245.9411,"ARG_OF_PERICENTER":20.2929,"MEAN_ANOMALY":340.0555,"EPHEMERIS_TYPE":0,"CLASSIFICATION_TYPE":"U","NORAD_CAT_ID":28647,"ELEMENT_SET_NO":999,"REV_AT_EPOCH":37707,"BSTAR":0.00046483736,"MEAN_MOTION_DOT":0.0002164,"MEAN_MOTION_DDOT":0}]
